{"spkid": "50712693", "covariance": {"labels": ["e", "q", "tp", "node", "peri", "i"], "elements": [{"label": "e", "title": "eccentricity", "value": ".7481445041926362", "units": null, "name": "e", "sigma": 2.45613556070513e-08}, {"name": "q", "sigma": 6.72091983669496e-08, "units": "au", "title": "perihelion distance", "value": ".6896263916505215", "label": "q"}, {"units": "TDB", "title": "time of perihelion passage", "value": "2457034.152979915119", "name": "tp", "sigma": 9.77067439118269e-06, "label": "tp"}, {"name": "om", "sigma": 2.66092979523397e-05, "units": "deg", "title": "longitude of the ascending node", "value": "3.321964535665029", "label": "node"}, {"label": "peri", "units": "deg", "value": "80.64287894981653", "title": "argument of perihelion", "sigma": 2.78482921560308e-05, "name": "w"}, {"units": "deg", "value": "10.3644303326086", "title": "inclination", "sigma": 1.61463941690814e-05, "name": "i", "label": "i"}], "data": [["6.032601892560295E-16", "-1.649988111268568E-15", "6.176227962655695E-14", "-3.000533207223795E-14", "-7.504854894293697E-14", "-2.867033249022476E-14"], ["-1.649988111268568E-15", "4.517076345127975E-15", "-1.768421022577773E-13", "8.483146227777674E-14", "1.989517736526869E-13", "8.453868012362474E-14"], ["6.176227962655695E-14", "-1.768421022577773E-13", "9.546607805851324E-11", "-4.562688660326616E-11", "8.599065339842018E-11", "-5.612312856987771E-11"], ["-3.000533207223795E-14", "8.483146227777674E-14", "-4.562688660326616E-11", "7.080547375163901E-10", "-7.135462868839193E-10", "-2.766077249212154E-10"], ["-7.504854894293697E-14", "1.989517736526869E-13", "8.599065339842018E-11", "-7.135462868839193E-10", "7.75527376007648E-10", "2.51930304018618E-10"], ["-2.867033249022476E-14", "8.453868012362474E-14", "-5.612312856987771E-11", "-2.766077249212154E-10", "2.51930304018618E-10", "2.607060446633454E-10"]], "epoch": "2457525.5"}, "elements": [{"sigma": "2.485E-8", "name": "e", "value": ".7483120744270166", "title": "eccentricity", "units": null, "label": "e"}, {"label": "a", "value": "2.741015667253948", "title": "semi-major axis", "units": "au", "sigma": "6.9868E-9", "name": "a"}, {"label": "q", "units": "au", "value": ".689880547254193", "title": "perihelion distance", "sigma": "6.8373E-8", "name": "q"}, {"units": "deg", "title": "inclination; angle with respect to x-y ecliptic plane", "value": "10.35610142095702", "sigma": "1.6143E-5", "name": "i", "label": "i"}, {"sigma": "2.6615E-5", "name": "om", "title": "longitude of the ascending node", "value": "3.160751516379596", "units": "deg", "label": "node"}, {"units": "deg", "value": "80.81162743868836", "title": "argument of perihelion", "sigma": "2.7835E-5", "name": "w", "label": "peri"}, {"label": "M", "sigma": "3.5582E-6", "name": "ma", "title": "mean anomaly", "value": "186.1569359841024", "units": "deg"}, {"label": "tp", "units": "TDB", "title": "time of perihelion passage", "value": "2462000.924863980984", "name": "tp", "sigma": "1.9024E-5"}, {"value": "1657.546435138783", "title": "sidereal orbital period", "units": "d", "name": "per", "sigma": "6.3375E-6", "label": "period"}, {"label": "n", "sigma": "8.3041E-10", "name": "n", "units": "deg/d", "value": ".2171884855641211", "title": "mean motion"}, {"label": "Q", "sigma": "1.2215E-8", "name": "ad", "title": "aphelion distance", "value": "4.792150787253703", "units": "au"}], "epoch": "2461200.5"}